[{"OBJECT_NAME":"STARLINK-4550","OBJECT_ID":"2022-101AV","EPOCH":"2026-03-09T22:27:46.528416","MEAN_MOTION":15.0882294,"ECCENTRICITY":0.00014577,"INCLINATION":53.2173,"RA_OF_ASC_NODE":52.9187,"ARG_OF_PERICENTER":100.627,"MEAN_ANOMALY":259.4887,"EPHEMERIS_TYPE":0,"CLASSIFICATION_TYPE":"U","NORAD_CAT_ID":53570,"ELEMENT_SET_NO":999,"REV_AT_EPOCH":19717,"BSTAR":-7.0113402e-5,"MEAN_MOTION_DOT":-1.403e-5,"MEAN_MOTION_DDOT":0},{"OBJECT_NAME":"LEMUR-2-SIERRINI","OBJECT_ID":"2024-149DR","EPOCH":"2026-03-09T19:24:50.445216","MEAN_MOTION":15.08682764,"ECCENTRICITY":0.00065795,"INCLINATION":97.6873,"RA_OF_ASC_NODE":151.1225,"ARG_OF_PERICENTER":147.8458,"MEAN_ANOMALY":212.3173,"EPHEMERIS_TYPE":0,"CLASSIFICATION_TYPE":"U","NORAD_CAT_ID":60579,"ELEMENT_SET_NO":999,"REV_AT_EPOCH":8546,"BSTAR":0.00092040134,"MEAN_MOTION_DOT":0.00014386,"MEAN_MOTION_DDOT":0}]
